TDRS 3                  
1 19548U 88091B   26032.69498538 -.00000304  00000+0  00000+0 0  9994
2 19548  12.7041 341.8970 0044037 349.2509   2.1477  1.00271345124029
HST                     
1 20580U 90037B   26032.91782303  .00007382  00000+0  24758-3 0  9998
2 20580  28.4672 283.9238 0002003  77.6200 282.4619 15.28899911767834
TDRS 5                  
1 21639U 91054B   26032.61780813  .00000077  00000+0  00000+0 0  9999
2 21639  14.0874 354.7801 0013610 267.7471 284.0481  1.00270541126354
TDRS 6                  
1 22314U 93003B   26032.76684244 -.00000302  00000+0  00000+0 0  9995
2 22314  14.1795 358.0620 0005990 209.4498 154.7495  1.00272463121053
TDRS 7                  
1 23613U 95035B   26032.86486299 -.00000245  00000+0  00000+0 0  9992
2 23613  13.4327 349.1191 0005555  44.0662 139.3647  1.00269025111895
ISS (ZARYA)             
1 25544U 98067A   26032.88782213  .00007269  00000+0  14305-3 0  9991
2 25544  51.6312 249.3384 0011111  54.7712 305.4314 15.48328191550781
TERRA                   
1 25994U 99068A   26032.90483206  .00000466  00000+0  10420-3 0  9991
2 25994  97.9667  87.6929 0001127 319.2821 146.6824 14.60973328389850
TDRS 8                  
1 26388U 00034A   26032.49392393 -.00000206  00000+0  00000+0 0  9996
2 26388  12.4687  32.4554 0005461 287.6373  74.1487  1.00273115 93825
TIMED                   
1 26998U 01055B   26032.77698950  .00001746  00000+0  16363-3 0  9998
2 26998  74.0696 147.5939 0001931 316.2636  43.8395 14.94894284310589
AQUA                    
1 27424U 02022A   26032.95251806  .00001095  00000+0  22881-3 0  9992
2 27424  98.4110 359.6849 0001712  59.1978 337.0718 14.61882673263510
SORCE                   
1 27651U 03004A   26032.81729169  .00003369  00000+0  25775-3 0  9993
2 27651  39.9919 313.5249 0016309 164.1672 195.9634 15.02784956251525
AURA                    
1 28376U 04026A   26032.88098267  .00001107  00000+0  23518-3 0  9999
2 28376  98.3253 348.3684 0001421  66.7921 293.3429 14.61067122146455
SWIFT                   
1 28485U 04047A   26032.61566507  .00053125  00000+0  72674-3 0  9995
2 28485  20.5535 141.0201 0002811 216.4658 143.5594 15.55655530165634
THEMIS A                
1 30580U 07004A   26032.39799381 -.00000379  00000+0  18970-2 0  9995
2 30580   6.1532 125.0839 8420895 168.9477 243.7603  0.87836077 40084
THEMIS D                
1 30797U 07004D   26032.91443660 -.00000442  00000+0  00000+0 0  9992
2 30797   6.1798  86.2011 8372776 210.8309  35.6715  0.87836778 39889
THEMIS E                
1 30798U 07004E   26032.84726955 -.00000439  00000+0  00000+0 0  9992
2 30798   3.6203 101.6095 8377187 196.2996  28.6019  0.87838279 64725
FGRST (GLAST)           
1 33053U 08029A   26032.78291159  .00003950  00000+0  14920-3 0  9993
2 33053  25.5828  64.0701 0008662 166.8251 193.2514 15.23029322975167
